AEROCUBE 6B             
1 40046U 14033AN  26062.01449149  .00008972  00000+0  75135-3 0  9992
2 40046  97.7105 229.8286 0037726   5.0402 355.1193 14.98106817630852
CANX-4                  
1 40055U 14034C   26062.15765331  .00001353  00000+0  18175-3 0  9999
2 40055  98.3288 293.4943 0012802 357.7943   2.3209 14.81040878628833
CANX-5                  
1 40056U 14034D   26062.15729993  .00001352  00000+0  18149-3 0  9994
2 40056  98.3291 293.5312 0012795 358.0287   2.0872 14.81057536619646
UKUBE-1                 
1 40074U 14037F   26062.19679825  .00012698  00000+0  75114-3 0  9999
2 40074  98.4218  54.4986 0002605 119.1945 240.9543 15.11612544632534
BRITE-PL2 (HEWELIUSZ)   
1 40119U 14049B   26061.84231936  .00003093  00000+0  29400-3 0  9996
2 40119  97.8979 173.1336 0015452 102.4479 257.8470 14.94135381625560
AEROCUBE 5C             
1 40965U 15058B   26061.93674957  .00004984  00000+0  44372-3 0  9995
2 40965  64.7659 232.9662 0131109 105.1816 256.3839 14.90781267349816
AEROCUBE 7              
1 40966U 15058C   26061.82662411  .00006735  00000+0  54682-3 0  9997
2 40966  64.7616 217.7319 0121121 104.3736 257.0859 14.94798472350053
FOX-1A (AO-85)          
1 40967U 15058D   26061.88201976  .00004626  00000+0  42033-3 0  9993
2 40967  64.7735 249.1775 0129257  98.6614 262.9166 14.90282691 97724
SINOD-D 1               
1 40968U 15058E   26061.95045060  .00006567  00000+0  53572-3 0  9998
2 40968  64.7739 231.3692 0117601  95.9887 265.4643 14.94952940100775
SNAP-3 ALICE            
1 40970U 15058G   26061.51104154  .00062737  00000+0  13910-2 0  9995
2 40970  64.7561 107.5162 0037484  72.1229 288.3990 15.42623390100344
LMRST-SAT               
1 40971U 15058H   26061.87788666  .00004728  00000+0  43118-3 0  9991
2 40971  64.7743 245.3312 0131398 100.6138 260.9804 14.89915268 97714
SNAP-3 EDDIE            
1 40972U 15058J   26062.16027011  .00062818  00000+0  13405-2 0  9994
2 40972  64.7482  96.7608 0038781  76.3496 284.1956 15.43696867102578
PROPCUBE 3              
1 40973U 15058K   26061.83496300  .00006101  00000+0  51162-3 0  9995
2 40973  64.7675 224.6184 0123995 102.4301 259.0721 14.93437636 98916
BISONSAT                
1 40974U 15058L   26061.62168048  .00014146  00000+0  73496-3 0  9990
2 40974  64.7610 157.5219 0079559  94.1495 266.8726 15.13574185 99473
SNAP-3 JIMI             
1 40975U 15058M   26061.70282442  .00008999  00000+0  63499-3 0  9996
2 40975  64.7656 196.3627 0105970  99.4923 261.8190 15.01002788 98234
PROPCUBE 1 (FLORA)      
1 40976U 15058N   26062.00455689  .00004086  00000+0  38899-3 0  9995
2 40976  64.7731 264.1661 0130521 102.8280 258.7451 14.88571797100454
SINOD-D 3               
1 40977U 15058P   26061.84671982  .00006200  00000+0  53041-3 0  9999
2 40977  64.7709 247.6667 0118968 100.9576 260.4948 14.93113287 98875
