[{"OBJECT_NAME":"AEROCUBE 6B","OBJECT_ID":"2014-033AN","EPOCH":"2026-03-03T00:20:52.064736","MEAN_MOTION":14.98106817,"ECCENTRICITY":0.0037726,"INCLINATION":97.7105,"RA_OF_ASC_NODE":229.8286,"ARG_OF_PERICENTER":5.0402,"MEAN_ANOMALY":355.1193,"EPHEMERIS_TYPE":0,"CLASSIFICATION_TYPE":"U","NORAD_CAT_ID":40046,"ELEMENT_SET_NO":999,"REV_AT_EPOCH":63085,"BSTAR":0.00075135,"MEAN_MOTION_DOT":8.972e-5,"MEAN_MOTION_DDOT":0},{"OBJECT_NAME":"CANX-4","OBJECT_ID":"2014-034C","EPOCH":"2026-03-03T03:47:01.245984","MEAN_MOTION":14.81040878,"ECCENTRICITY":0.0012802,"INCLINATION":98.3288,"RA_OF_ASC_NODE":293.4943,"ARG_OF_PERICENTER":357.7943,"MEAN_ANOMALY":2.3209,"EPHEMERIS_TYPE":0,"CLASSIFICATION_TYPE":"U","NORAD_CAT_ID":40055,"ELEMENT_SET_NO":999,"REV_AT_EPOCH":62883,"BSTAR":0.00018175,"MEAN_MOTION_DOT":1.353e-5,"MEAN_MOTION_DDOT":0},{"OBJECT_NAME":"CANX-5","OBJECT_ID":"2014-034D","EPOCH":"2026-03-03T03:46:30.713952","MEAN_MOTION":14.81057536,"ECCENTRICITY":0.0012795,"INCLINATION":98.3291,"RA_OF_ASC_NODE":293.5312,"ARG_OF_PERICENTER":358.0287,"MEAN_ANOMALY":2.0872,"EPHEMERIS_TYPE":0,"CLASSIFICATION_TYPE":"U","NORAD_CAT_ID":40056,"ELEMENT_SET_NO":999,"REV_AT_EPOCH":61964,"BSTAR":0.00018149,"MEAN_MOTION_DOT":1.352e-5,"MEAN_MOTION_DDOT":0},{"OBJECT_NAME":"UKUBE-1","OBJECT_ID":"2014-037F","EPOCH":"2026-03-03T04:43:23.368800","MEAN_MOTION":15.11612544,"ECCENTRICITY":0.0002605,"INCLINATION":98.4218,"RA_OF_ASC_NODE":54.4986,"ARG_OF_PERICENTER":119.1945,"MEAN_ANOMALY":240.9543,"EPHEMERIS_TYPE":0,"CLASSIFICATION_TYPE":"U","NORAD_CAT_ID":40074,"ELEMENT_SET_NO":999,"REV_AT_EPOCH":63253,"BSTAR":0.00075114,"MEAN_MOTION_DOT":0.00012698,"MEAN_MOTION_DDOT":0},{"OBJECT_NAME":"BRITE-PL2 (HEWELIUSZ)","OBJECT_ID":"2014-049B","EPOCH":"2026-03-02T20:12:56.392704","MEAN_MOTION":14.94135381,"ECCENTRICITY":0.0015452,"INCLINATION":97.8979,"RA_OF_ASC_NODE":173.1336,"ARG_OF_PERICENTER":102.4479,"MEAN_ANOMALY":257.847,"EPHEMERIS_TYPE":0,"CLASSIFICATION_TYPE":"U","NORAD_CAT_ID":40119,"ELEMENT_SET_NO":999,"REV_AT_EPOCH":62556,"BSTAR":0.000294,"MEAN_MOTION_DOT":3.093e-5,"MEAN_MOTION_DDOT":0},{"OBJECT_NAME":"AEROCUBE 5C","OBJECT_ID":"2015-058B","EPOCH":"2026-03-02T22:28:55.162848","MEAN_MOTION":14.90781267,"ECCENTRICITY":0.0131109,"INCLINATION":64.7659,"RA_OF_ASC_NODE":232.9662,"ARG_OF_PERICENTER":105.1816,"MEAN_ANOMALY":256.3839,"EPHEMERIS_TYPE":0,"CLASSIFICATION_TYPE":"U","NORAD_CAT_ID":40965,"ELEMENT_SET_NO":999,"REV_AT_EPOCH":34981,"BSTAR":0.00044372,"MEAN_MOTION_DOT":4.984e-5,"MEAN_MOTION_DDOT":0},{"OBJECT_NAME":"AEROCUBE 7","OBJECT_ID":"2015-058C","EPOCH":"2026-03-02T19:50:20.323104","MEAN_MOTION":14.94798472,"ECCENTRICITY":0.01211212,"INCLINATION":64.7616,"RA_OF_ASC_NODE":217.7319,"ARG_OF_PERICENTER":104.3736,"MEAN_ANOMALY":257.0859,"EPHEMERIS_TYPE":0,"CLASSIFICATION_TYPE":"U","NORAD_CAT_ID":40966,"ELEMENT_SET_NO":999,"REV_AT_EPOCH":35005,"BSTAR":0.00054681578,"MEAN_MOTION_DOT":6.735e-5,"MEAN_MOTION_DDOT":0},{"OBJECT_NAME":"FOX-1A (AO-85)","OBJECT_ID":"2015-058D","EPOCH":"2026-03-02T21:10:06.507264","MEAN_MOTION":14.90282691,"ECCENTRICITY":0.0129257,"INCLINATION":64.7735,"RA_OF_ASC_NODE":249.1775,"ARG_OF_PERICENTER":98.6614,"MEAN_ANOMALY":262.9166,"EPHEMERIS_TYPE":0,"CLASSIFICATION_TYPE":"U","NORAD_CAT_ID":40967,"ELEMENT_SET_NO":999,"REV_AT_EPOCH":9772,"BSTAR":0.00042033,"MEAN_MOTION_DOT":4.626e-5,"MEAN_MOTION_DDOT":0},{"OBJECT_NAME":"SINOD-D 1","OBJECT_ID":"2015-058E","EPOCH":"2026-03-02T22:48:38.931840","MEAN_MOTION":14.9495294,"ECCENTRICITY":0.0117601,"INCLINATION":64.7739,"RA_OF_ASC_NODE":231.3692,"ARG_OF_PERICENTER":95.9887,"MEAN_ANOMALY":265.4643,"EPHEMERIS_TYPE":0,"CLASSIFICATION_TYPE":"U","NORAD_CAT_ID":40968,"ELEMENT_SET_NO":999,"REV_AT_EPOCH":10077,"BSTAR":0.00053572,"MEAN_MOTION_DOT":6.567e-5,"MEAN_MOTION_DDOT":0},{"OBJECT_NAME":"SNAP-3 ALICE","OBJECT_ID":"2015-058G","EPOCH":"2026-03-02T12:15:53.989056","MEAN_MOTION":15.4262339,"ECCENTRICITY":0.00374842,"INCLINATION":64.7561,"RA_OF_ASC_NODE":107.5162,"ARG_OF_PERICENTER":72.1229,"MEAN_ANOMALY":288.399,"EPHEMERIS_TYPE":0,"CLASSIFICATION_TYPE":"U","NORAD_CAT_ID":40970,"ELEMENT_SET_NO":999,"REV_AT_EPOCH":10034,"BSTAR":0.001390995,"MEAN_MOTION_DOT":0.00062737,"MEAN_MOTION_DDOT":0},{"OBJECT_NAME":"LMRST-SAT","OBJECT_ID":"2015-058H","EPOCH":"2026-03-02T21:04:09.407424","MEAN_MOTION":14.89915268,"ECCENTRICITY":0.0131398,"INCLINATION":64.7743,"RA_OF_ASC_NODE":245.3312,"ARG_OF_PERICENTER":100.6138,"MEAN_ANOMALY":260.9804,"EPHEMERIS_TYPE":0,"CLASSIFICATION_TYPE":"U","NORAD_CAT_ID":40971,"ELEMENT_SET_NO":999,"REV_AT_EPOCH":9771,"BSTAR":0.00043118,"MEAN_MOTION_DOT":4.728e-5,"MEAN_MOTION_DDOT":0},{"OBJECT_NAME":"SNAP-3 EDDIE","OBJECT_ID":"2015-058J","EPOCH":"2026-03-03T03:50:47.337504","MEAN_MOTION":15.43696867,"ECCENTRICITY":0.0038781,"INCLINATION":64.7482,"RA_OF_ASC_NODE":96.7608,"ARG_OF_PERICENTER":76.3496,"MEAN_ANOMALY":284.1956,"EPHEMERIS_TYPE":0,"CLASSIFICATION_TYPE":"U","NORAD_CAT_ID":40972,"ELEMENT_SET_NO":999,"REV_AT_EPOCH":10257,"BSTAR":0.0013405,"MEAN_MOTION_DOT":0.00062818,"MEAN_MOTION_DDOT":0},{"OBJECT_NAME":"PROPCUBE 3","OBJECT_ID":"2015-058K","EPOCH":"2026-03-02T20:02:20.803200","MEAN_MOTION":14.93437636,"ECCENTRICITY":0.01239953,"INCLINATION":64.7675,"RA_OF_ASC_NODE":224.6184,"ARG_OF_PERICENTER":102.4301,"MEAN_ANOMALY":259.0721,"EPHEMERIS_TYPE":0,"CLASSIFICATION_TYPE":"U","NORAD_CAT_ID":40973,"ELEMENT_SET_NO":999,"REV_AT_EPOCH":9891,"BSTAR":0.00051161963,"MEAN_MOTION_DOT":6.101e-5,"MEAN_MOTION_DDOT":0},{"OBJECT_NAME":"BISONSAT","OBJECT_ID":"2015-058L","EPOCH":"2026-03-02T14:55:13.193472","MEAN_MOTION":15.13574185,"ECCENTRICITY":0.0079559,"INCLINATION":64.761,"RA_OF_ASC_NODE":157.5219,"ARG_OF_PERICENTER":94.1495,"MEAN_ANOMALY":266.8726,"EPHEMERIS_TYPE":0,"CLASSIFICATION_TYPE":"U","NORAD_CAT_ID":40974,"ELEMENT_SET_NO":999,"REV_AT_EPOCH":9947,"BSTAR":0.00073496,"MEAN_MOTION_DOT":0.00014146,"MEAN_MOTION_DDOT":0},{"OBJECT_NAME":"SNAP-3 JIMI","OBJECT_ID":"2015-058M","EPOCH":"2026-03-02T16:52:04.029888","MEAN_MOTION":15.01002788,"ECCENTRICITY":0.01059702,"INCLINATION":64.7656,"RA_OF_ASC_NODE":196.3627,"ARG_OF_PERICENTER":99.4923,"MEAN_ANOMALY":261.819,"EPHEMERIS_TYPE":0,"CLASSIFICATION_TYPE":"U","NORAD_CAT_ID":40975,"ELEMENT_SET_NO":999,"REV_AT_EPOCH":9823,"BSTAR":0.00063499031,"MEAN_MOTION_DOT":8.999e-5,"MEAN_MOTION_DDOT":0},{"OBJECT_NAME":"PROPCUBE 1 (FLORA)","OBJECT_ID":"2015-058N","EPOCH":"2026-03-03T00:06:33.715296","MEAN_MOTION":14.88571797,"ECCENTRICITY":0.0130521,"INCLINATION":64.7731,"RA_OF_ASC_NODE":264.1661,"ARG_OF_PERICENTER":102.828,"MEAN_ANOMALY":258.7451,"EPHEMERIS_TYPE":0,"CLASSIFICATION_TYPE":"U","NORAD_CAT_ID":40976,"ELEMENT_SET_NO":999,"REV_AT_EPOCH":10045,"BSTAR":0.00038899,"MEAN_MOTION_DOT":4.086e-5,"MEAN_MOTION_DDOT":0},{"OBJECT_NAME":"SINOD-D 3","OBJECT_ID":"2015-058P","EPOCH":"2026-03-02T20:19:16.592448","MEAN_MOTION":14.93113287,"ECCENTRICITY":0.0118968,"INCLINATION":64.7709,"RA_OF_ASC_NODE":247.6667,"ARG_OF_PERICENTER":100.9576,"MEAN_ANOMALY":260.4948,"EPHEMERIS_TYPE":0,"CLASSIFICATION_TYPE":"U","NORAD_CAT_ID":40977,"ELEMENT_SET_NO":999,"REV_AT_EPOCH":9887,"BSTAR":0.00053041,"MEAN_MOTION_DOT":6.2e-5,"MEAN_MOTION_DDOT":0}]
